{
  "norad_id": 59531,
  "name": "STARLINK-31619",
  "history": [
    {
      "epoch": "2026-03-28T19:47:00.339072",
      "apogee_km": 483.8342002652071,
      "perigee_km": 482.1912293544983,
      "latitude_deg": -23.854405461807954,
      "longitude_deg": -147.76628991984762,
      "semi_major_axis_km": 6861.149714809852,
      "eccentricity": 0.00011973,
      "inclination_deg": 42.9981,
      "raan_deg": 209.8147,
      "arg_perigee_deg": 276.0361,
      "mean_anomaly_deg": 84.0354,
      "mean_motion_rev_day": 15.2759215
    },
    {
      "epoch": "2026-03-29T00:29:29.634432",
      "apogee_km": 483.3996293154478,
      "perigee_km": 482.8027015950529,
      "latitude_deg": 23.955480232691155,
      "longitude_deg": -128.9337395199109,
      "semi_major_axis_km": 6861.23816545525,
      "eccentricity": 4.35e-05,
      "inclination_deg": 42.9977,
      "raan_deg": 208.7051,
      "arg_perigee_deg": 2.3136,
      "mean_anomaly_deg": 357.7718,
      "mean_motion_rev_day": 15.27562611
    }
  ]
}